[{"OBJECT_NAME":"STARLINK-34075","OBJECT_ID":"2025-095AD","EPOCH":"2025-07-31T09:05:33.765792","MEAN_MOTION":15.27575338,"ECCENTRICITY":0.0001513,"INCLINATION":43.0018,"RA_OF_ASC_NODE":345.8432,"ARG_OF_PERICENTER":273.7696,"MEAN_ANOMALY":86.2983,"EPHEMERIS_TYPE":0,"CLASSIFICATION_TYPE":"U","NORAD_CAT_ID":63917,"ELEMENT_SET_NO":999,"REV_AT_EPOCH":1393,"BSTAR":0.0011008,"MEAN_MOTION_DOT":0.00030149,"MEAN_MOTION_DDOT":0},{"OBJECT_NAME":"STARLINK-34012","OBJECT_ID":"2025-098A","EPOCH":"2025-07-31T03:23:51.463968","MEAN_MOTION":14.9833729,"ECCENTRICITY":0.0002634,"INCLINATION":70,"RA_OF_ASC_NODE":113.1828,"ARG_OF_PERICENTER":270.6034,"MEAN_ANOMALY":89.4823,"EPHEMERIS_TYPE":0,"CLASSIFICATION_TYPE":"U","NORAD_CAT_ID":63926,"ELEMENT_SET_NO":999,"REV_AT_EPOCH":1336,"BSTAR":0.00051545,"MEAN_MOTION_DOT":6.064e-5,"MEAN_MOTION_DDOT":0},{"OBJECT_NAME":"STARLINK-33956","OBJECT_ID":"2025-098B","EPOCH":"2025-07-30T21:29:19.898016","MEAN_MOTION":14.98335877,"ECCENTRICITY":0.0002745,"INCLINATION":70.0008,"RA_OF_ASC_NODE":113.5241,"ARG_OF_PERICENTER":268.2059,"MEAN_ANOMALY":91.8786,"EPHEMERIS_TYPE":0,"CLASSIFICATION_TYPE":"U","NORAD_CAT_ID":63927,"ELEMENT_SET_NO":999,"REV_AT_EPOCH":1335,"BSTAR":0.00014127,"MEAN_MOTION_DOT":1.593e-5,"MEAN_MOTION_DDOT":0},{"OBJECT_NAME":"STARLINK-33997","OBJECT_ID":"2025-098C","EPOCH":"2025-07-30T22:53:28.929120","MEAN_MOTION":14.98337484,"ECCENTRICITY":0.0002964,"INCLINATION":69.9995,"RA_OF_ASC_NODE":113.7241,"ARG_OF_PERICENTER":273.5926,"MEAN_ANOMALY":86.4894,"EPHEMERIS_TYPE":0,"CLASSIFICATION_TYPE":"U","NORAD_CAT_ID":63928,"ELEMENT_SET_NO":999,"REV_AT_EPOCH":1335,"BSTAR":0.00021754,"MEAN_MOTION_DOT":2.504e-5,"MEAN_MOTION_DDOT":0},{"OBJECT_NAME":"STARLINK-33989","OBJECT_ID":"2025-098D","EPOCH":"2025-07-30T22:17:39.552000","MEAN_MOTION":14.98331823,"ECCENTRICITY":0.000282,"INCLINATION":69.9996,"RA_OF_ASC_NODE":113.6432,"ARG_OF_PERICENTER":266.223,"MEAN_ANOMALY":93.8607,"EPHEMERIS_TYPE":0,"CLASSIFICATION_TYPE":"U","NORAD_CAT_ID":63929,"ELEMENT_SET_NO":999,"REV_AT_EPOCH":1335,"BSTAR":9.9596e-5,"MEAN_MOTION_DOT":1.096e-5,"MEAN_MOTION_DDOT":0},{"OBJECT_NAME":"STARLINK-33980","OBJECT_ID":"2025-098E","EPOCH":"2025-07-30T22:47:28.546944","MEAN_MOTION":14.983383,"ECCENTRICITY":0.0002267,"INCLINATION":69.9999,"RA_OF_ASC_NODE":113.7167,"ARG_OF_PERICENTER":270.3099,"MEAN_ANOMALY":89.7801,"EPHEMERIS_TYPE":0,"CLASSIFICATION_TYPE":"U","NORAD_CAT_ID":63930,"ELEMENT_SET_NO":999,"REV_AT_EPOCH":1335,"BSTAR":0.00025534,"MEAN_MOTION_DOT":2.956e-5,"MEAN_MOTION_DDOT":0},{"OBJECT_NAME":"STARLINK-33994","OBJECT_ID":"2025-098F","EPOCH":"2025-07-31T11:00:43.418304","MEAN_MOTION":14.9833364,"ECCENTRICITY":0.0002933,"INCLINATION":69.9994,"RA_OF_ASC_NODE":112.2807,"ARG_OF_PERICENTER":266.0842,"MEAN_ANOMALY":93.9982,"EPHEMERIS_TYPE":0,"CLASSIFICATION_TYPE":"U","NORAD_CAT_ID":63931,"ELEMENT_SET_NO":999,"REV_AT_EPOCH":1315,"BSTAR":0.00020392,"MEAN_MOTION_DOT":2.341e-5,"MEAN_MOTION_DDOT":0},{"OBJECT_NAME":"STARLINK-33971","OBJECT_ID":"2025-098G","EPOCH":"2025-07-31T03:30:06.325920","MEAN_MOTION":14.98337913,"ECCENTRICITY":0.0002818,"INCLINATION":70,"RA_OF_ASC_NODE":113.1974,"ARG_OF_PERICENTER":268.0157,"MEAN_ANOMALY":92.0679,"EPHEMERIS_TYPE":0,"CLASSIFICATION_TYPE":"U","NORAD_CAT_ID":63932,"ELEMENT_SET_NO":999,"REV_AT_EPOCH":1320,"BSTAR":0.00026966,"MEAN_MOTION_DOT":3.127e-5,"MEAN_MOTION_DDOT":0},{"OBJECT_NAME":"STARLINK-33877","OBJECT_ID":"2025-098H","EPOCH":"2025-07-31T12:00:00.999648","MEAN_MOTION":14.98293103,"ECCENTRICITY":0.0002928,"INCLINATION":69.9997,"RA_OF_ASC_NODE":112.0216,"ARG_OF_PERICENTER":260.1437,"MEAN_ANOMALY":96.9534,"EPHEMERIS_TYPE":0,"CLASSIFICATION_TYPE":"U","NORAD_CAT_ID":63933,"ELEMENT_SET_NO":999,"REV_AT_EPOCH":1316,"BSTAR":0.002945,"MEAN_MOTION_DOT":0.00035189,"MEAN_MOTION_DDOT":0},{"OBJECT_NAME":"STARLINK-33895","OBJECT_ID":"2025-098J","EPOCH":"2025-07-31T02:35:59.292960","MEAN_MOTION":14.98394136,"ECCENTRICITY":0.0003311,"INCLINATION":69.9999,"RA_OF_ASC_NODE":113.0645,"ARG_OF_PERICENTER":279.2854,"MEAN_ANOMALY":80.793,"EPHEMERIS_TYPE":0,"CLASSIFICATION_TYPE":"U","NORAD_CAT_ID":63934,"ELEMENT_SET_NO":999,"REV_AT_EPOCH":1321,"BSTAR":-0.0052343,"MEAN_MOTION_DOT":-0.00062102,"MEAN_MOTION_DDOT":0},{"OBJECT_NAME":"STARLINK-34005","OBJECT_ID":"2025-098K","EPOCH":"2025-07-30T22:47:43.203840","MEAN_MOTION":14.9836018,"ECCENTRICITY":0.0003055,"INCLINATION":69.9996,"RA_OF_ASC_NODE":113.7096,"ARG_OF_PERICENTER":266.2544,"MEAN_ANOMALY":93.8265,"EPHEMERIS_TYPE":0,"CLASSIFICATION_TYPE":"U","NORAD_CAT_ID":63935,"ELEMENT_SET_NO":999,"REV_AT_EPOCH":1335,"BSTAR":0.0008183,"MEAN_MOTION_DOT":9.692e-5,"MEAN_MOTION_DDOT":0},{"OBJECT_NAME":"STARLINK-34027","OBJECT_ID":"2025-098L","EPOCH":"2025-07-31T03:48:05.834304","MEAN_MOTION":14.98334868,"ECCENTRICITY":0.0003021,"INCLINATION":69.9997,"RA_OF_ASC_NODE":112.8335,"ARG_OF_PERICENTER":268.6495,"MEAN_ANOMALY":91.4318,"EPHEMERIS_TYPE":0,"CLASSIFICATION_TYPE":"U","NORAD_CAT_ID":63936,"ELEMENT_SET_NO":999,"REV_AT_EPOCH":1327,"BSTAR":0.00015238,"MEAN_MOTION_DOT":1.726e-5,"MEAN_MOTION_DDOT":0},{"OBJECT_NAME":"STARLINK-34035","OBJECT_ID":"2025-098M","EPOCH":"2025-07-31T10:54:42.678432","MEAN_MOTION":14.98336631,"ECCENTRICITY":0.0002572,"INCLINATION":70.0005,"RA_OF_ASC_NODE":112.267,"ARG_OF_PERICENTER":272.0826,"MEAN_ANOMALY":88.0039,"EPHEMERIS_TYPE":0,"CLASSIFICATION_TYPE":"U","NORAD_CAT_ID":63937,"ELEMENT_SET_NO":999,"REV_AT_EPOCH":1337,"BSTAR":0.00045175,"MEAN_MOTION_DOT":5.302e-5,"MEAN_MOTION_DDOT":0},{"OBJECT_NAME":"STARLINK-33988","OBJECT_ID":"2025-098N","EPOCH":"2025-07-30T22:23:23.925984","MEAN_MOTION":14.98521544,"ECCENTRICITY":0.0002394,"INCLINATION":70.0001,"RA_OF_ASC_NODE":113.6574,"ARG_OF_PERICENTER":269.3074,"MEAN_ANOMALY":90.7811,"EPHEMERIS_TYPE":0,"CLASSIFICATION_TYPE":"U","NORAD_CAT_ID":63938,"ELEMENT_SET_NO":999,"REV_AT_EPOCH":1333,"BSTAR":-0.0096297,"MEAN_MOTION_DOT":-0.00113707,"MEAN_MOTION_DDOT":0},{"OBJECT_NAME":"STARLINK-34020","OBJECT_ID":"2025-098P","EPOCH":"2025-07-30T23:17:43.645056","MEAN_MOTION":14.9833934,"ECCENTRICITY":0.0002641,"INCLINATION":70.0004,"RA_OF_ASC_NODE":113.3848,"ARG_OF_PERICENTER":267.1491,"MEAN_ANOMALY":92.9366,"EPHEMERIS_TYPE":0,"CLASSIFICATION_TYPE":"U","NORAD_CAT_ID":63939,"ELEMENT_SET_NO":999,"REV_AT_EPOCH":1334,"BSTAR":0.000332,"MEAN_MOTION_DOT":3.871e-5,"MEAN_MOTION_DDOT":0},{"OBJECT_NAME":"STARLINK-34021","OBJECT_ID":"2025-098Q","EPOCH":"2025-07-31T03:42:06.660864","MEAN_MOTION":14.983351,"ECCENTRICITY":0.0002908,"INCLINATION":69.9982,"RA_OF_ASC_NODE":113.2187,"ARG_OF_PERICENTER":265.2777,"MEAN_ANOMALY":94.805,"EPHEMERIS_TYPE":0,"CLASSIFICATION_TYPE":"U","NORAD_CAT_ID":63940,"ELEMENT_SET_NO":999,"REV_AT_EPOCH":1332,"BSTAR":-0.00058769,"MEAN_MOTION_DOT":-7.099e-5,"MEAN_MOTION_DDOT":0},{"OBJECT_NAME":"STARLINK-34004","OBJECT_ID":"2025-098R","EPOCH":"2025-07-30T20:17:28.735008","MEAN_MOTION":14.98336464,"ECCENTRICITY":0.0002326,"INCLINATION":70.0005,"RA_OF_ASC_NODE":113.7485,"ARG_OF_PERICENTER":269.0355,"MEAN_ANOMALY":91.0537,"EPHEMERIS_TYPE":0,"CLASSIFICATION_TYPE":"U","NORAD_CAT_ID":63941,"ELEMENT_SET_NO":999,"REV_AT_EPOCH":1332,"BSTAR":0.00018558,"MEAN_MOTION_DOT":2.122e-5,"MEAN_MOTION_DDOT":0}]
