STARLINK-34075          
1 63917U 25095AD  25212.37886303  .00030149  00000+0  11008-2 0  9995
2 63917  43.0018 345.8432 0001513 273.7696  86.2983 15.27575338 13931
STARLINK-34012          
1 63926U 25098A   25212.14156787  .00006064  00000+0  51545-3 0  9999
2 63926  70.0000 113.1828 0002634 270.6034  89.4823 14.98337290 13369
STARLINK-33956          
1 63927U 25098B   25211.89536919  .00001593  00000+0  14127-3 0  9997
2 63927  70.0008 113.5241 0002745 268.2059  91.8786 14.98335877 13357
STARLINK-33997          
1 63928U 25098C   25211.95380705  .00002504  00000+0  21754-3 0  9992
2 63928  69.9995 113.7241 0002964 273.5926  86.4894 14.98337484 13353
STARLINK-33989          
1 63929U 25098D   25211.92893000  .00001096  00000+0  99596-4 0  9992
2 63929  69.9996 113.6432 0002820 266.2230  93.8607 14.98331823 13359
STARLINK-33980          
1 63930U 25098E   25211.94963596  .00002956  00000+0  25534-3 0  9990
2 63930  69.9999 113.7167 0002267 270.3099  89.7801 14.98338300 13351
STARLINK-33994          
1 63931U 25098F   25212.45883586  .00002341  00000+0  20392-3 0  9993
2 63931  69.9994 112.2807 0002933 266.0842  93.9982 14.98333640 13157
STARLINK-33971          
1 63932U 25098G   25212.14590655  .00003127  00000+0  26966-3 0  9998
2 63932  70.0000 113.1974 0002818 268.0157  92.0679 14.98337913 13203
STARLINK-33877          
1 63933U 25098H   25212.50001157  .00035189  00000+0  29450-2 0  9996
2 63933  69.9997 112.0216 0002928 260.1437  96.9534 14.98293103 13169
STARLINK-33895          
1 63934U 25098J   25212.10832515 -.00062102  00000+0 -52343-2 0  9997
2 63934  69.9999 113.0645 0003311 279.2854  80.7930 14.98394136 13215
STARLINK-34005          
1 63935U 25098K   25211.94980560  .00009692  00000+0  81830-3 0  9990
2 63935  69.9996 113.7096 0003055 266.2544  93.8265 14.98360180 13350
STARLINK-34027          
1 63936U 25098L   25212.15840086  .00001726  00000+0  15238-3 0  9992
2 63936  69.9997 112.8335 0003021 268.6495  91.4318 14.98334868 13270
STARLINK-34035          
1 63937U 25098M   25212.45466063  .00005302  00000+0  45175-3 0  9992
2 63937  70.0005 112.2670 0002572 272.0826  88.0039 14.98336631 13370
STARLINK-33988          
1 63938U 25098N   25211.93291581 -.00113707  00000+0 -96297-2 0  9997
2 63938  70.0001 113.6574 0002394 269.3074  90.7811 14.98521544 13334
STARLINK-34020          
1 63939U 25098P   25211.97064404  .00003871  00000+0  33200-3 0  9998
2 63939  70.0004 113.3848 0002641 267.1491  92.9366 14.98339340 13344
STARLINK-34021          
1 63940U 25098Q   25212.15424376 -.00007099  00000+0 -58769-3 0  9994
2 63940  69.9982 113.2187 0002908 265.2777  94.8050 14.98335100 13324
STARLINK-34004          
1 63941U 25098R   25211.84547147  .00002122  00000+0  18558-3 0  9994
2 63941  70.0005 113.7485 0002326 269.0355  91.0537 14.98336464 13321
